[{"OBJECT_NAME":"STARLINK-30289","OBJECT_ID":"2023-122X","EPOCH":"2026-03-09T22:00:01.999584","MEAN_MOTION":15.154502,"ECCENTRICITY":0.00025448,"INCLINATION":43.0011,"RA_OF_ASC_NODE":79.8606,"ARG_OF_PERICENTER":284.0605,"MEAN_ANOMALY":121.5991,"EPHEMERIS_TYPE":0,"CLASSIFICATION_TYPE":"U","NORAD_CAT_ID":57653,"ELEMENT_SET_NO":999,"REV_AT_EPOCH":547,"BSTAR":0.0047703811,"MEAN_MOTION_DOT":0.0009282,"MEAN_MOTION_DDOT":0},{"OBJECT_NAME":"PIAST-S1","OBJECT_ID":"2025-276CM","EPOCH":"2026-03-09T17:19:42.400992","MEAN_MOTION":15.19110879,"ECCENTRICITY":0.00014695,"INCLINATION":97.4262,"RA_OF_ASC_NODE":144.0248,"ARG_OF_PERICENTER":354.6822,"MEAN_ANOMALY":5.4397,"EPHEMERIS_TYPE":0,"CLASSIFICATION_TYPE":"U","NORAD_CAT_ID":66749,"ELEMENT_SET_NO":999,"REV_AT_EPOCH":1532,"BSTAR":0.00033676553,"MEAN_MOTION_DOT":7.004e-5,"MEAN_MOTION_DDOT":0}]
